PROBA-1                 
1 26958U 01049B   21026.65071814  .00000432  00000-0  42467-4 0  9993
2 26958  97.7510 344.4740 0071243 234.4183 125.0357 14.95630314 48718
BIRD 2                  
1 26959U 01049C   21026.45184562  .00003180  00000-0  86186-4 0  9996
2 26959  97.8172  80.8259 0008671  32.8875 327.2907 15.38458821 68902
CUTE-1 (CO-55)          
1 27844U 03031E   21026.51316201  .00000081  00000-0  56197-4 0  9993
2 27844  98.6817  36.8680 0010727 126.4801 233.7367 14.22284398911809
CUBESAT XI-IV (CO-57)   
1 27848U 03031J   21026.53465488  .00000067  00000-0  50070-4 0  9999
2 27848  98.6878  37.4573 0010468 138.3093 221.8884 14.21864826911648
GENESIS 1               
1 29252U 06029A   21026.44040616  .00000971  00000-0  56635-4 0  9999
2 29252  64.5223 292.1163 0025302 340.0779  19.9353 15.18444813801952
FALCONSAT-3             
1 30776U 07006E   21026.13963407  .00004664  00000-0  11746-3 0  9992
2 30776  35.4346 293.9145 0001916   9.5334 350.5430 15.39392909771155
GENESIS 2               
1 31789U 07028A   21026.58765872  .00000942  00000-0  56468-4 0  9992
2 31789  64.5072 333.6928 0028410 217.8999 142.0125 15.17582483749030
APRIZESAT 4             
1 35684U 09041D   21026.51997741  .00000116  00000-0  23128-4 0  9992
2 35684  98.2976  18.0884 0047171 175.8427 184.3185 14.79332274620114
APRIZESAT 3             
1 35686U 09041F   21026.40311198  .00000174  00000-0  24996-4 0  9996
2 35686  98.1544  95.8618 0073635  42.4138 318.2736 14.87462035623229
PROBA-2                 
1 36037U 09059B   21026.51708169  .00000031  00000-0  18293-4 0  9991
2 36037  98.2216 217.7173 0012433 228.5086 131.5044 14.53123869595729
APRIZESAT 5             
1 37792U 11044E   21026.74550580  .00000142  00000-0  28769-4 0  9996
2 37792  98.3920 240.1731 0058194 175.7945 184.3764 14.75451212508428
APRIZESAT 6             
1 37793U 11044F   21026.49033977  .00000128  00000-0  28778-4 0  9999
2 37793  98.4280 215.2763 0046128 217.3079 204.0198 14.72506907507252
TET-1                   
1 38710U 12039D   21026.77575679  .00007504  00000-0  12187-3 0  9996
2 38710  97.5772  72.7028 0003540  94.2489 265.9168 15.53034679478528
PROBA-V                 
1 39159U 13021A   21026.12306487 -.00000020  00000-0  94020-5 0  9999
2 39159  98.4313  80.6068 0005131 125.3223 234.8437 14.22995416401170
STPSAT-3                
1 39380U 13064A   21026.51893899  .00001844  00000-0  53807-4 0  9994
2 39380  40.4987 192.8842 0002740 211.1523 148.9130 15.38220871401131
APRIZESAT 7             
1 39416U 13066A   21026.49070721  .00000153  00000-0  24201-4 0  9992
2 39416  97.5315  28.7298 0039971 227.3665 132.4179 14.84031443388841
APRIZESAT 8             
1 39425U 13066K   21026.50914754  .00000142  00000-0  24373-4 0  9995
2 39425  97.5691  19.2168 0050359 261.8088  97.7412 14.81240623387913
BUGSAT-1 (TITA)         
1 40014U 14033E   21026.72889179  .00000423  00000-0  43581-4 0  9996
2 40014  98.0937   1.3970 0030243 273.5815  86.1941 14.95621884360387
SAUDISAT 4              
1 40016U 14033G   21026.55271521  .00000096  00000-0  21120-4 0  9996
2 40016  97.6823 243.2428 0047980 346.1946  13.7949 14.75328093355653
APRIZESAT 9             
1 40018U 14033J   21026.53214463  .00000077  00000-0  20190-4 0  9993
2 40018  97.6962 220.2591 0072329  42.1717 318.5023 14.70023623354170
APRIZESAT 10            
1 40019U 14033K   21026.49175216  .00000095  00000-0  24181-4 0  9995
2 40019  97.7238 209.5395 0085570  75.3016 285.7655 14.67080253353647
TDS 1                   
1 40076U 14037H   21026.52585544  .00000594  00000-0  77368-4 0  9994
2 40076  98.4452 225.6752 0005851 265.1878  94.8666 14.84635785354479
TIANTUO 2               
1 40144U 14053B   21026.70434677  .00000953  00000-0  30113-4 0  9994
2 40144  97.2352 111.6832 0010399 217.3560 246.6850 15.35217711357303
TECHNOSAT               
1 42829U 17042E   21026.53862944  .00000468  00000-0  52327-4 0  9992
2 42829  97.4900 263.4235 0012705 260.3186  99.6598 14.91209038192535
FLYING LAPTOP           
1 42831U 17042G   21026.78201130 -.00000317  00000-0 -26547-4 0  9996
2 42831  97.4912 263.8397 0012572 260.2016  99.7798 14.91226034192579
HAWK-A                  
1 43765U 18099H   21026.57101322  .00000361  00000-0  37030-4 0  9991
2 43765  97.6829 100.8899 0015682 164.0373 196.1347 14.96219684117335
HAWK-B                  
1 43794U 18099AN  21026.43765223 -.00000001  00000-0  50074-5 0  9990
2 43794  97.6802 100.7620 0015325 165.1504 195.0170 14.96221009117304
HAWK-C                  
1 43799U 18099AT  21026.43745271  .00000003  00000-0  53888-5 0  9993
2 43799  97.6801 100.6786 0015257 164.9731 195.1947 14.96219355117307
SALSAT                  
1 46495U 20068K   21026.56020907  .00000852  00000-0  67179-4 0  9993
2 46495  97.6820 325.0158 0017002 188.2785 171.8160 15.03337768 18012
